{
  "norad_id": 61231,
  "name": "2024-173E",
  "history": [
    {
      "epoch": "2026-03-25T07:29:54.347712",
      "apogee_km": 509.4879488658826,
      "perigee_km": 507.1747841415745,
      "latitude_deg": 2.3656059019957456,
      "longitude_deg": 45.09371968009509,
      "semi_major_axis_km": 6886.468366503728,
      "eccentricity": 0.00016795,
      "inclination_deg": 97.4119,
      "raan_deg": 158.0503,
      "arg_perigee_deg": 89.1222,
      "mean_anomaly_deg": 271.0205,
      "mean_motion_rev_day": 15.19175426
    }
  ]
}